BEIDOU-2 IGSO-1 (C06)   
1 36828U 10036A   24195.86813353 -.00000061  00000+0  00000+0 0  9991
2 36828  54.2572 169.3229 0041740 207.1762 336.2849  1.00275009 51170
BEIDOU-2 G4 (C04)       
1 37210U 10057A   24195.87549407 -.00000099  00000+0  00000+0 0  9998
2 37210   1.9069  69.1439 0004216 152.3092 185.9177  1.00270599 50238
BEIDOU-2 IGSO-2 (C07)   
1 37256U 10068A   24195.80723965 -.00000197  00000+0  00000+0 0  9995
2 37256  48.8287 280.4975 0039498 214.7439 193.2896  1.00295646 49745
BEIDOU-2 IGSO-3 (C08)   
1 37384U 11013A   24195.49553507 -.00000170  00000+0  00000+0 0  9997
2 37384  61.3882  46.8565 0027486 173.7851 354.3118  1.00252723 48603
BEIDOU-2 IGSO-4 (C09)   
1 37763U 11038A   24195.91177623  .00000040  00000+0  00000+0 0  9998
2 37763  54.5625 171.9368 0126210 229.1072 312.2648  1.00254476 47595
BEIDOU-2 IGSO-5 (C10)   
1 37948U 11073A   24194.78156890 -.00000181  00000+0  00000+0 0  9996
2 37948  48.9634 280.2000 0101783 220.4871 166.7406  1.00288592 46075
BEIDOU-2 G5 (C05)       
1 38091U 12008A   24195.85864807  .00000071  00000+0  00000+0 0  9995
2 38091   2.1386  71.0694 0003812 260.5765 328.4318  1.00267874 45312
BEIDOU-2 M3 (C11)       
1 38250U 12018A   24195.78056143 -.00000095  00000+0  00000+0 0  9998
2 38250  56.3206 328.4582 0021709 260.8361  98.9219  1.86231376 82846
BEIDOU-2 M4 (C12)       
1 38251U 12018B   24195.71065323 -.00000095  00000+0  00000+0 0  9992
2 38251  56.2273 327.7302 0012587 260.9694  98.8921  1.86232083 82841
BEIDOU-2 M6 (C14)       
1 38775U 12050B   24193.27242630 -.00000046  00000+0  00000+0 0  9992
2 38775  55.9306  86.3579 0013268 343.2454  16.7602  1.86231281 80511
BEIDOU-2 G6 (C02)       
1 38953U 12059A   24195.91646594 -.00000160  00000+0  00000+0 0  9996
2 38953   2.6256  80.3283 0008786 321.2655 304.5189  1.00268168 42859
BEIDOU-3S IGSO-1S (C31) 
1 40549U 15019A   24194.78060807 -.00000173  00000+0  00000+0 0  9994
2 40549  50.5255 303.8916 0035667 193.5664 166.8065  1.00300213 34017
BEIDOU-3S M2S (C58)     
1 40748U 15037A   24194.83674048 -.00000097  00000+0  00000+0 0  9994
2 40748  55.4590 326.1640 0009487 244.8960 115.0102  1.86233326 61007
BEIDOU-3S M1S (C57)     
1 40749U 15037B   24195.10772142 -.00000097  00000+0  00000+0 0  9990
2 40749  55.4617 326.1411 0002582 347.7929  12.2055  1.86227736 61004
BEIDOU-3S IGSO-2S (C56) 
1 40938U 15053A   24195.89178587 -.00000111  00000+0  00000+0 0  9994
2 40938  50.3147 267.0950 0053275 191.4334 248.7798  1.00256945 32307
BEIDOU-2 IGSO-6 (C13)   
1 41434U 16021A   24194.49700115 -.00000151  00000+0  00000+0 0  9999
2 41434  59.2135  45.0903 0048124 221.8388 297.9823  1.00266799 30413
BEIDOU-2 G7 (C03)       
1 41586U 16037A   24195.86891674 -.00000340  00000+0  00000+0 0  9997
2 41586   1.9690  69.9484 0008692   4.3446 281.2601  1.00275215 29731
BEIDOU-3 M1 (C19)       
1 43001U 17069A   24195.18623749 -.00000052  00000+0  00000+0 0  9998
2 43001  56.0822  86.3941 0009672 310.9969  48.9678  1.86231725 45494
BEIDOU-3 M2 (C20)       
1 43002U 17069B   24195.12354993 -.00000052  00000+0  00000+0 0  9995
2 43002  56.0815  86.4318 0008126 337.8289  22.1843  1.86231098 45482
BEIDOU-3 M7 (C27)       
1 43107U 18003A   24195.40931091 -.00000097  00000+0  00000+0 0  9990
2 43107  54.9166 326.7239 0004301  82.9067 277.1469  1.86232648 44240
BEIDOU-3 M8 (C28)       
1 43108U 18003B   24194.81300646 -.00000098  00000+0  00000+0 0  9992
2 43108  54.9103 326.7298 0003155 247.3655 112.6056  1.86231140 44244
BEIDOU-3 M4 (C22)       
1 43207U 18018A   24195.25432844 -.00000052  00000+0  00000+0 0  9993
2 43207  56.0412  86.4802 0006439   7.3958 352.6618  1.86231604 43636
BEIDOU-3 M3 (C21)       
1 43208U 18018B   24195.32093511 -.00000052  00000+0  00000+0 0  9996
2 43208  56.0406  86.4821 0007703 326.5422  33.4571  1.86231482 43634
BEIDOU-3 M9 (C29)       
1 43245U 18029A   24195.54186788 -.00000096  00000+0  00000+0 0  9990
2 43245  54.7991 324.4249 0000885 178.9639 181.0424  1.86232959 42794
BEIDOU-3 M10 (C30)      
1 43246U 18029B   24195.47150608 -.00000097  00000+0  00000+0 0  9996
2 43246  54.7963 324.4551 0003059  19.5118 340.5059  1.86233098 42788
BEIDOU-2 IGSO-7 (C16)   
1 43539U 18057A   24194.84984603 -.00000061  00000+0  00000+0 0  9993
2 43539  55.1461 169.1447 0075448 233.6722 302.6655  1.00245711 22072
BEIDOU-3 M5 (C23)       
1 43581U 18062A   24195.69488350  .00000098  00000+0  00000+0 0  9997
2 43581  54.1314 206.2310 0005638 277.2672  82.7033  1.86228910 40532
BEIDOU-3 M6 (C24)       
1 43582U 18062B   24195.56062819  .00000096  00000+0  00000+0 0  9990
2 43582  54.1311 206.2249 0004451 354.2102   5.8188  1.86229828 40533
BEIDOU-3 M12 (C26)      
1 43602U 18067A   24194.41978966  .00000081  00000+0  00000+0 0  9994
2 43602  54.2220 204.9473 0006740  16.8915 343.1598  1.86231760 39995
BEIDOU-3 M11 (C25)      
1 43603U 18067B   24195.62764831  .00000098  00000+0  00000+0 0  9991
2 43603  54.2192 204.8713 0003774 358.0626   1.9681  1.86231664 40047
BEIDOU-3 M13 (C32)      
1 43622U 18072A   24193.97811777 -.00000049  00000+0  00000+0 0  9993
2 43622  56.0111  86.0527 0006300 312.6427  47.3538  1.86231721 39525
BEIDOU-3 M14 (C33)      
1 43623U 18072B   24195.45443054 -.00000053  00000+0  00000+0 0  9993
2 43623  56.0140  85.9966 0004922 346.2841  13.7509  1.86231649 39540
BEIDOU-3 M16 (C35)      
1 43647U 18078A   24195.07998563 -.00000097  00000+0  00000+0 0  9991
2 43647  54.6958 324.5372 0006505  23.3656 336.6697  1.86232391 39041
BEIDOU-3 M15 (C34)      
1 43648U 18078B   24195.74610035 -.00000096  00000+0  00000+0 0  9990
2 43648  54.6910 324.5169 0003545  41.1098 318.9230  1.86232461 39070
BEIDOU-3 G1 (C59)       
1 43683U 18085A   24195.87474726 -.00000264  00000+0  00000+0 0  9993
2 43683   2.2555 108.5931 0004065 352.1170 286.3728  1.00277310 21006
BEIDOU-3 M17 (C36)      
1 43706U 18093A   24195.35977526  .00000094  00000+0  00000+0 0  9997
2 43706  54.2144 206.1827 0010459 280.9447  78.9711  1.86228578 38439
BEIDOU-3 M18 (C37)      
1 43707U 18093B   24195.22490828  .00000092  00000+0  00000+0 0  9997
2 43707  54.2152 206.1790 0008396 305.1039  54.8504  1.86230078 38422
BEIDOU-3 IGSO-1 (C38)   
1 44204U 19023A   24195.85640973 -.00000212  00000+0  00000+0 0  9996
2 44204  57.6810  44.9434 0022680 205.7215 107.7501  1.00293879   157
BEIDOU-2 G8 (C01)       
1 44231U 19027A   24195.83591076 -.00000233  00000+0  00000+0 0  9990
2 44231   1.5397  73.9211 0001381 187.4808 116.2792  1.00272569 19025
BEIDOU-3 IGSO-2 (C39)   
1 44337U 19035A   24195.80709171 -.00000074  00000+0  00000+0 0  9993
2 44337  55.1832 165.0356 0035208 205.0934 330.4621  1.00289382 18612
BEIDOU-3 M24 (C46)      
1 44542U 19061A   24195.29444886  .00000093  00000+0  00000+0 0  9992
2 44542  54.4421 206.4763 0008104 341.3801  18.6242  1.86229372 32684
BEIDOU-3 M23 (C45)      
1 44543U 19061B   24195.56516397  .00000097  00000+0  00000+0 0  9994
2 44543  54.4405 206.4360 0005659 320.7429 133.1618  1.86231927 32699
BEIDOU-3 IGSO-3 (C40)   
1 44709U 19073A   24175.72519622 -.00000189  00000+0  00000+0 0  9994
2 44709  56.0384 288.6583 0039278 182.0502 177.9480  1.00247548 17183
BEIDOU-3 M22 (C44)      
1 44793U 19078A   24193.52935439 -.00000099  00000+0  00000+0 0  9998
2 44793  54.5448 324.5199 0005535  33.2974 326.7415  1.86232395 31504
BEIDOU-3 M21 (C43)      
1 44794U 19078B   24194.73298033 -.00000098  00000+0  00000+0 0  9994
2 44794  54.5174 324.4536 0003314  31.1935 328.8318  1.86232812 31534
BEIDOU-3 M19 (C41)      
1 44864U 19090A   24194.96305088 -.00000052  00000+0  00000+0 0  9990
2 44864  55.9466  86.1899 0016985 285.2130  61.7975  1.86231989 31112
BEIDOU-3 M20 (C42)      
1 44865U 19090B   24195.65279816 -.00000053  00000+0  00000+0 0  9998
2 44865  55.9485  86.2002 0014929 299.4149 239.7621  1.86231890 31110
BEIDOU-3 G2 (C60)       
1 45344U 20017A   24195.86282515 -.00000128  00000+0  00000+0 0  9998
2 45344   2.3473  30.6439 0001922 129.3942 162.8506  1.00271794 16208
BEIDOU-3 G3 (C61)       
1 45807U 20040A   24195.86882972 -.00000339  00000+0  00000+0 0  9995
2 45807   0.8214  45.5039 0004539  18.0028 291.9203  1.00265071 15012
BEIDOU-3 G4             
1 56564U 23066A   24195.87875031 -.00000095  00000+0  00000+0 0  9996
2 56564   2.0579 288.2118 0006047 206.1550 274.1767  1.00273411  4341
BEIDOU-3 M25            
1 58654U 23207A   24194.81581436 -.00000052  00000+0  00000+0 0  9994
2 58654  55.1294  86.1926 0002163 317.2258  42.8052  1.86232428  3727
BEIDOU-3 M26            
1 58655U 23207B   24195.15177200 -.00000053  00000+0  00000+0 0  9994
2 58655  55.1317  86.1665 0002439 280.5742  79.4459  1.86232134  3710
